OBJECT_NAME,OBJECT_ID,EPOCH,MEAN_MOTION,ECCENTRICITY,INCLINATION,RA_OF_ASC_NODE,ARG_OF_PERICENTER,MEAN_ANOMALY,EPHEMERIS_TYPE,CLASSIFICATION_TYPE,NORAD_CAT_ID,ELEMENT_SET_NO,REV_AT_EPOCH,BSTAR,MEAN_MOTION_DOT,MEAN_MOTION_DDOT
RADFXSAT (FOX-1B),2017-073E,2026-05-21T13:06:34.843104,15.12173908,.01536492,97.4738,9.3125,60.9980,300.6551,0,U,43017,999,46136,.29381655E-3,.6694E-4,0
JILIN-1 04,2017-074A,2026-05-21T13:06:37.353888,15.41688718,.00025591,97.4833,250.4680,294.3505,65.7474,0,U,43022,999,47016,.21272307E-3,.8886E-4,0
JILIN-1 05,2017-074B,2026-05-21T13:35:06.778752,15.33413707,.00042632,97.4840,247.3734,336.8105,23.2944,0,U,43023,999,46992,.17748809E-3,.5651E-4,0
JILIN-1 06,2017-074C,2026-05-21T14:25:16.978080,15.33361075,.00061858,97.4768,244.4489,346.1643,13.9429,0,U,43024,999,46976,.13674276E-3,.4329E-4,0
IRIDIUM 116,2017-083C,2026-05-21T11:50:51.241632,14.34218115,.00018372,86.3954,333.1666,81.8939,278.2465,0,U,43072,999,44034,-.13072799E-4,-.17E-6,0
IRIDIUM 130,2017-083D,2026-05-21T11:05:11.059584,14.34217768,.00020631,86.3961,333.4525,81.9183,278.2247,0,U,43073,999,44028,-.5430651E-5,.5E-7,0
LKW-2,2017-084A,2026-05-21T14:31:16.486752,15.25945336,.0002028,97.1202,182.6486,34.1904,325.9465,0,U,43080,999,46763,.22709225E-3,.5761E-4,0
SUPERVIEW-1 03,2018-002A,2026-05-21T13:39:25.945920,15.38329304,.00461395,97.3126,226.4666,276.5861,83.0133,0,U,43099,999,46427,.24512431E-3,.9519E-4,0
CARTOSAT-2F,2018-004A,2026-05-21T14:22:39.275616,15.19237338,.00013432,97.4795,201.4901,48.7560,311.3790,0,U,43111,999,46329,.20750679E-3,.4303E-4,0
LKW-3,2018-006A,2026-05-21T14:04:46.435584,15.34664389,.00039248,97.6593,301.1381,58.3668,301.7957,0,U,43146,999,46463,.21637257E-3,.7185E-4,0
ASNARO-2,2018-007A,2026-05-21T13:35:38.572224,15.22398876,.00018505,97.3985,148.9086,84.8227,275.3221,0,U,43152,999,46336,.29292774E-3,.6699E-4,0
JILIN-1 07,2018-008E,2026-05-21T13:14:55.383360,15.34225088,.00095487,97.1787,162.1992,143.3545,216.8353,0,U,43159,999,46091,.18709707E-3,.613E-4,0
JILIN-1 08,2018-008F,2026-05-21T14:25:36.089760,15.33333168,.00069678,97.1817,161.5894,153.1453,207.0152,0,U,43160,999,46087,.18862841E-3,.6004E-4,0
LEMUR-2-KADI,2018-014E,2026-05-21T13:42:23.533344,15.90548735,.000507,97.4433,71.5680,124.5616,235.6136,0,U,43184,999,45685,.13172954E-2,.402226E-2,.62808653E-4
S-NET D,2018-014G,2026-05-21T05:04:26.401152,15.16382455,.00100169,97.5380,46.1734,108.0667,252.1658,0,U,43186,999,45467,.18678961E-3,.3563E-4,0
S-NET B,2018-014H,2026-05-21T05:20:10.521600,15.16352530,.0010722,97.5387,46.1699,104.3935,255.8489,0,U,43187,999,45467,.1841148E-3,.3508E-4,0
S-NET A,2018-014J,2026-05-21T05:03:01.374048,15.16389707,.00106163,97.5395,46.3616,105.1420,255.0988,0,U,43188,999,45467,.19525938E-3,.3729E-4,0
S-NET C,2018-014K,2026-05-21T05:25:33.101184,15.16343651,.00120553,97.5414,46.4478,99.1215,261.1382,0,U,43189,999,45322,.18107379E-3,.3449E-4,0
PAZ,2018-020A,2026-05-21T15:04:15.267936,15.19145230,.0001681,97.4459,149.3914,88.6360,271.5067,0,U,43215,999,45697,.75934E-4,.1528E-4,0
GOES 17,2018-022A,2026-05-21T13:45:52.142688,1.00271184,.00004283,0.8722,86.0568,324.0232,306.1145,0,U,43226,999,3015,0,-.19E-5,0
LKW-4,2018-025A,2026-05-21T00:42:56.787552,15.59998857,.00027555,97.6342,309.8264,63.9316,296.2224,0,U,43236,999,45579,.33379001E-3,.26895E-3,0
ZHUHAI-1 OVS-02,2018-040B,2026-05-21T15:41:43.653408,15.24622600,.00038291,97.0405,160.4634,27.2354,332.9085,0,U,43440,999,44867,.21152183E-3,.5154E-4,0
ZHUHAI-1 OHS-02,2018-040C,2026-05-21T14:06:47.888928,15.25443082,.00081538,97.0389,167.3146,337.2595,22.8282,0,U,43441,999,11022,.20660866E-3,.5162E-4,0
GAOFEN-6,2018-048A,2026-05-21T15:26:05.486784,14.76595703,.00105091,97.7764,205.2977,260.5201,99.4822,0,U,43484,999,42947,.42410516E-4,.247E-5,0
LUOJIA-1 01,2018-048B,2026-05-21T14:21:45.387072,14.87171577,.00083451,97.8101,220.2150,199.6654,160.4242,0,U,43485,999,43026,.1648983E-3,.1429E-4,0
PAKTES 1A,2018-056A,2026-05-21T13:42:36.680832,14.98932844,.00216696,98.1239,296.9280,194.1710,165.8907,0,U,43529,999,42793,.18370839E-3,.2166E-4,0
PRSS-1,2018-056B,2026-05-21T15:42:54.607680,14.81939973,.00018348,97.7823,210.2583,88.8325,271.3098,0,U,43530,999,42450,.34911947E-4,.226E-5,0
HAIYANG-1C,2018-068A,2026-05-21T14:15:36.999936,14.34170924,.00110644,98.5191,214.2851,167.2159,192.9309,0,U,43609,999,40327,.16709899E-3,.425E-5,0
SSTL S1-4,2018-071A,2026-05-21T14:30:23.615136,14.96185511,.0001435,97.5062,14.3195,78.1440,281.9942,0,U,43618,999,41896,.11399191E-3,.123E-4,0
HAIYANG-2B,2018-081A,2026-05-21T14:43:55.310304,13.79306984,.00014587,99.3291,150.7712,41.3032,318.8230,0,U,43655,999,38126,.16115507E-3,.121E-5,0
CZ-4B R/B,2018-081B,2026-05-21T05:05:51.608832,14.31853453,.02045219,99.3690,56.9851,344.7814,14.7272,0,U,43656,999,39544,.50184286E-4,.11E-5,0
CFOSAT,2018-083A,2026-05-21T13:35:43.022688,15.16514908,.0001443,97.3611,146.8824,63.3102,296.8279,0,U,43662,999,41840,.12480667E-3,.2367E-4,0
TEN-KOH,2018-084G,2026-05-21T11:47:48.245568,15.02795007,.00091351,98.0751,332.7324,203.4589,156.6219,0,U,43677,999,41215,.11988002E-3,.1539E-4,0
DIWATA-2B,2018-084H,2026-05-21T15:02:45.728160,15.00308054,.0011634,98.1117,336.6923,261.7901,98.2002,0,U,43678,999,41223,.16611755E-3,.2019E-4,0
STARS-AO,2018-084J,2026-05-21T13:19:41.293920,15.16715866,.00007515,98.0528,353.8880,223.4879,136.6294,0,U,43679,999,41343,.1984139E-3,.3813E-4,0
AUTCUBE 2,2018-084K,2026-05-21T12:35:45.775104,15.09879975,.00101859,98.0732,346.2869,128.2213,231.9933,0,U,43681,999,41290,.17024076E-3,.2688E-4,0
METOP-C,2018-087A,2026-05-21T14:27:19.773216,14.21503971,.00006072,98.6657,201.6896,149.7433,210.3779,0,U,43689,999,39105,.48572439E-4,.63E-6,0
ES'HAIL 2,2018-090A,2026-05-21T14:18:41.495904,1.00270964,.00013344,0.0112,342.6538,105.3261,31.7185,0,U,43700,999,2741,0,.136E-5,0
MOHAMMED VI-B,2018-095A,2026-05-21T14:56:02.956416,14.77077881,.00012243,97.9556,214.3118,82.3836,277.7513,0,U,43717,999,40426,.93611506E-4,.61E-5,0
HYSIS,2018-096A,2026-05-21T14:48:49.123872,14.78633327,.00010846,97.9843,208.5713,115.6616,244.4707,0,U,43719,999,40349,.19378422E-3,.1367E-4,0
COSMOS 2530 (RODNIK-S 16),2018-097A,2026-05-21T13:42:22.860288,12.42880442,.00207974,82.5153,238.7966,95.0812,265.2642,0,U,43751,999,33898,-.12158306E-3,-.7E-7,0
COSMOS 2531 (RODNIK-S 17),2018-097B,2026-05-21T14:15:24.351840,12.42912228,.00179764,82.5199,239.8319,112.8939,247.4040,0,U,43752,999,33900,.29299316E-3,.51E-6,0
COSMOS 2532 (RODNIK-S 18),2018-097C,2026-05-21T14:56:01.568832,12.42908824,.00193506,82.5143,238.6125,114.9052,245.4042,0,U,43753,999,33897,-.26496519E-4,.6E-7,0
MINXSS-2,2018-099A,2026-05-21T11:43:42.352896,15.44963246,.00065647,97.4543,217.0298,12.7744,347.3670,0,U,43758,999,41000,.51885503E-3,.24402E-3,0
SIRION PATHFINDER-2,2018-099B,2026-05-21T13:17:41.698176,15.14272291,.00096204,97.4267,191.2470,41.9321,318.2646,0,U,43759,999,40859,.20909311E-3,.3764E-4,0
AISTECHSAT 2,2018-099L,2026-05-21T14:36:35.216352,15.15139868,.00056696,97.4309,190.2278,48.5937,311.5782,0,U,43768,999,40825,.21916447E-3,.4044E-4,0
FOX-1CLIFF (AO-95),2018-099N,2026-05-21T14:14:07.007424,15.26058774,.00103952,97.4396,201.9482,85.8622,274.3805,0,U,43770,999,40916,.30247754E-3,.7731E-4,0
2018-099Q,2018-099Q,2026-05-21T11:44:06.987264,15.75700299,.0004414,97.4175,220.8718,243.5548,116.5264,0,U,43772,999,41044,.10193935E-2,.158299E-2,0
RANGE-A,2018-099R,2026-05-21T14:18:16.514208,15.13124399,.00120829,97.3983,184.9557,82.2778,277.9825,0,U,43773,999,40847,.19402415E-3,.3379E-4,0
SNUSAT-2,2018-099AA,2026-05-21T13:38:26.869056,15.21375889,.00109669,97.4073,195.3675,38.4282,321.7733,0,U,43782,999,40898,.26280959E-3,.5832E-4,0
SNUGLITE,2018-099AC,2026-05-21T14:26:16.256256,15.26520754,.00036118,97.3882,196.1536,53.2641,306.8929,0,U,43784,999,40926,.29164524E-3,.7547E-4,0
ITASAT,2018-099AE,2026-05-21T14:29:11.645664,15.18666112,.00143615,97.4045,193.6506,87.3963,272.8916,0,U,43786,999,40887,.22728832E-3,.4655E-4,0
EAGLET-I,2018-099AJ,2026-05-21T03:10:43.957344,15.12703873,.00128502,97.4247,191.5196,81.8339,278.4349,0,U,43790,999,40824,.15344063E-3,.2627E-4,0
ESEO,2018-099AL,2026-05-21T02:32:14.565696,15.04156075,.00137014,97.4000,179.6526,69.9510,290.3190,0,U,43792,999,40773,.80377102E-4,.1059E-4,0
THEA,2018-099AQ,2026-05-21T03:22:01.046496,15.33992669,.00075548,97.4446,210.5883,34.1841,325.9886,0,U,43796,999,40854,.37627243E-3,.12311E-3,0
ASTROCAST 0.1,2018-099AS,2026-05-21T04:28:34.971168,15.47585612,.00033416,97.4378,218.8810,321.5182,38.5829,0,U,43798,999,41025,.46690654E-3,.24003E-3,0
JY1SAT (JO-97),2018-099AX,2026-05-21T14:20:59.537184,15.32703742,.00054818,97.4140,204.3568,23.1070,337.0417,0,U,43803,999,40955,.35793308E-3,.11235E-3,0
SUOMI-100,2018-099AY,2026-05-21T13:18:26.953632,15.27724038,.0010149,97.4200,202.0581,24.8082,335.3643,0,U,43804,999,40935,.31109568E-3,.8366E-4,0
CENTAURI-1,2018-099BD,2026-05-21T14:38:11.782176,15.16054393,.00156447,97.4237,193.9034,64.7761,295.5091,0,U,43809,999,40847,.20317356E-3,.3853E-4,0
GLOBAL-2,2018-099BG,2026-05-21T13:02:04.553664,15.08492776,.00043646,97.3572,179.1657,235.2488,124.8330,0,U,43812,999,40789,.99110552E-4,.1485E-4,0
SEAHAWK-1,2018-099BQ,2026-05-21T09:18:41.417568,15.22306852,.00093732,97.3972,194.2893,53.2172,306.9924,0,U,43820,999,40845,.262653E-3,.5989E-4,0
SAUDISAT 5A,2018-102A,2026-05-21T15:22:33.927744,15.27738066,.00086476,97.3076,203.7368,219.3880,140.6732,0,U,43831,999,41162,.13699991E-3,.3642E-4,0
SAUDISAT 5B,2018-102C,2026-05-21T14:22:01.060896,15.28010343,.00092657,97.3182,206.7170,222.8481,137.2037,0,U,43833,999,41173,.12966668E-3,.3473E-4,0
2018-102D,2018-102D,2026-05-21T14:59:31.035264,15.63534646,.00055319,97.3436,229.6401,159.4181,200.7302,0,U,43834,999,41309,.48829595E-3,.45281E-3,0
ISAT,2018-111D,2026-05-21T14:10:47.470944,15.60489610,.00070995,97.5897,74.8664,65.7365,294.4633,0,U,43879,999,40701,.679441E-3,.56153E-3,0
